[Satellite]
VERSION=1.1
NAME=GPS BIIRM-2 (PRN 31)
NICKNAME=GPS BIIRM-2 (PRN 31)
TLE1=1 29486U 06042A   20157.37774122  .00000021  00000-0  00000+0 0  9991
TLE2=2 29486  54.8647 238.8627 0094817   6.1930  86.5274  2.00573547100364
STATUS=0
